!Amigos!_2046	0.000209467951403
%C2%A1Amigos%21_09f6	0.000209467951403
!Hero_d070	0.000209467951403
%21Hero_%28album%29_053d	0.000209467951403
%21Hero_d070	0.000209467951403
Angel	0.000209467951403
Audio_Adrenaline_a9fb	0.000209467951403
Bethlehem%2C_Pennsylvania_d331	0.000209467951403
Bible	0.000209467951403
Bob_Farrell_7a92	0.000209467951403
Brooklyn	0.000209467951403
Caiaphas	0.000209467951403
Christianity	0.000209467951403
Comic_book	0.000209467951403
DVD_1991	0.000209467951403
Dystopia	0.000209467951403
Earth	0.000209467951403
Eddie_DeGarmo_a41d	0.000209467951403
GRITS_%28band%29_d942	0.000209467951403
Gangs	0.000209467951403
Gospel	0.000209467951403
Governor	0.000209467951403
Janitor	0.000209467951403
Jesus	0.000209467951403
Jesus_Freak_Hideout_5d9d	0.000209467951403
Jewish	0.000209467951403
John_Cooper_%28musician%29_cb59	0.000209467951403
Judaism	0.000209467951403
Judas_Iscariot_cdd5	0.000209467951403
Mark_Stuart_%28musician%29_3848	0.000209467951403
Mary_Magdalene_8dd9	0.000209467951403
Michael_Tait_431d	0.000209467951403
New_York_City_1428	0.000209467951403
Novel	0.000209467951403
Paul_Wright_%28rapper%29_2d12	0.000209467951403
Pete_Stewart_c977	0.000209467951403
Police	0.000209467951403
Police_Chief_cd1d	0.000209467951403
Preacher	0.000209467951403
Rabbi	0.000209467951403
Rebecca_St._James_4a02	0.000209467951403
Religion	0.000209467951403
Resurrection_of_Jesus_9d9f	0.000209467951403
Rock_opera	0.000209467951403
Sanctus_Real_e861	0.000209467951403
Skillet_%28band%29	0.000209467951403
St._Peter_f8c9	0.000209467951403
Synagogue	0.000209467951403
T-Bone_%28rapper%29_c356	0.000209467951403
index	0.000209467951403
!Mucha_Lucha!_1b9f	0.000209467951403
%C2%A1Mucha_Lucha%21_0303	0.000209467951403
$pread	0.000209467951403
%24pread	0.000209467951403
Sex_worker	0.000209467951403
Sex_workers_rights	0.000209467951403
(+)-delta-cadinene_synthase	0.000209467951403
%28%2B%29-delta-cadinene	0.000209467951403
%28%2B%29-delta-cadinene_synthase	0.000209467951403
2-trans%2C6-trans-farnesyl_diphosphate	0.000209467951403
CAS_registry_number_4b20	0.000209467951403
Catalysis	0.000209467951403
Chemical_reaction	0.000209467951403
Cofactor_%28biochemistry%29	0.000209467951403
Delta-cadinene_synthase	0.000209467951403
Digital_object_identifier	0.000209467951403
Diphosphate	0.000209467951403
EC_4.2_fee8	0.000209467951403
EC_number_9459	0.000209467951403
Enzyme	0.000209467951403
Enzymology	0.000209467951403
Lyase	0.000209467951403
Magnesium	0.000209467951403
Product_%28chemistry%29	0.000209467951403
Substrate_%28biochemistry%29	0.000209467951403
Terpenoid_biosynthesis	0.000209467951403
(137295)_1999_RB216_4a52	0.000209467951403
%28118228%29_1996_TQ66_553e	0.000209467951403
%28118378%29_1999_HT11_e565	0.000209467951403
%28118379%29_1999_HC12_e0ec	0.000209467951403
%28118702%29_2000_OM67_3b87	0.000209467951403
%28119068%29_2001_KC77_0605	0.000209467951403
%28119070%29_2001_KP77_aab8	0.000209467951403
%28119878%29_2002_CY224_18a3	0.000209467951403
%28119951%29_2002_KX14_7646	0.000209467951403
%28119979%29_2002_WC19_e767	0.000209467951403
%28120132%29_2003_FY128_a52e	0.000209467951403
%28120178%29_2003_OP32_4650	0.000209467951403
%28120347%29_2004_SB60_9a53	0.000209467951403
%28120348%29_2004_TY364_e9ab	0.000209467951403
%28130391%29_2000_JG81_fc3f	0.000209467951403
%28136108%29_2003_EL61_6d34	0.000209467951403
%28136120%29_2003_LG7_8a92	0.000209467951403
%28136472%29_2005_FY9_237b	0.000209467951403
%28137295%29_1999_RB216_4a52	0.000209467951403
%28145451%29_2005_RM43_a883	0.000209467951403
%28145452%29_2005_RN43_7e8d	0.000209467951403
%28145453%29_2005_RR43_61bb	0.000209467951403
%28148209%29_2000_CR105_cc09	0.000209467951403
%2815760%29_1992_QB1_5584	0.000209467951403
%2815788%29_1993_SB_09b4	0.000209467951403
%2815789%29_1993_SC_5f9d	0.000209467951403
%2815807%29_1994_GV9_25dc	0.000209467951403
%2815809%29_1994_JS_7ec5	0.000209467951403
%2815810%29_1994_JR1_9064	0.000209467951403
%2815820%29_1994_TB_9854	0.000209467951403
%2815836%29_1995_DA2_e7b0	0.000209467951403
%2815874%29_1996_TL66_0d37	0.000209467951403
%2815875%29_1996_TP66_9886	0.000209467951403
%2815883%29_1997_CR29_81e6	0.000209467951403
%2816684%29_1994_JQ1_9522	0.000209467951403
%2819255%29_1994_VK8_7357	0.000209467951403
%2819299%29_1996_SZ4_d584	0.000209467951403
%2819308%29_1996_TO66_5b9f	0.000209467951403
%2820108%29_1995_QZ9_e342	0.000209467951403
%2820161%29_1996_TR66_9c77	0.000209467951403
%2824835%29_1995_SM55_9693	0.000209467951403
%2824952%29_1997_QJ4_4b49	0.000209467951403
%2824978%29_1998_HJ151_afd7	0.000209467951403
%2826181%29_1996_GQ21_cb2c	0.000209467951403
%2826308%29_1998_SM165_5ec5	0.000209467951403
%2826375%29_1999_DE9_1e62	0.000209467951403
%2833001%29_1997_CU29_8f99	0.000209467951403
%2833340%29_1998_VG44_1179	0.000209467951403
%2835671%29_1998_SN165_9542	0.000209467951403
%2838084%29_1999_HB12_6f83	0.000209467951403
%2840314%29_1999_KR16_18a9	0.000209467951403
%2842301%29_2001_UR163_b358	0.000209467951403
%2847171%29_1999_TC36_44af	0.000209467951403
%2848639%29_1995_TL8_9ef4	0.000209467951403
%2852747%29_1998_HM151_4f55	0.000209467951403
%2855565%29_2002_AW197_732f	0.000209467951403
%2855636%29_2002_TX300_e441	0.000209467951403
%2855637%29_2002_UX25_6acd	0.000209467951403
%2858534%29_Logos_I_Zoe_7c41	0.000209467951403
%2859358%29_1999_CL158_1a27	0.000209467951403
%2860608%29_2000_EE173_6b6c	0.000209467951403
%2865407%29_2002_RP120_86ce	0.000209467951403
%2869986%29_1998_WW24_a9e8	0.000209467951403
%2869987%29_1998_WA25_80ec	0.000209467951403
%2869988%29_1998_WA31_8769	0.000209467951403
%2869990%29_1998_WU31_7524	0.000209467951403
%2879360%29_1997_CS29_c2e0	0.000209467951403
%2879969%29_1999_CP133_adaf	0.000209467951403
%2879978%29_1999_CC158_ba3f	0.000209467951403
%2879983%29_1999_DF9_bc05	0.000209467951403
%2884522%29_2002_TC302_db93	0.000209467951403
%2884719%29_2002_VR128_ade5	0.000209467951403
%2884922%29_2003_VS2_7781	0.000209467951403
%2885627%29_1998_HP151_ee78	0.000209467951403
%2885633%29_1998_KR65_043e	0.000209467951403
%2886047%29_1999_OY3_0af7	0.000209467951403
%2887269%29_2000_OO67_b972	0.000209467951403
%2888611%29_Teharonhiawako_I_Sawiskera_7aa6	0.000209467951403
%2890568%29_2004_GV9_4a5a	0.000209467951403
%2891133%29_1998_HK151_f17e	0.000209467951403
%2891205%29_1998_US43_0eac	0.000209467951403
%2895625%29_2002_GX32_a8a8	0.000209467951403
19521_Chaos_6a0d	0.000209467951403
1993_RO_3417	0.000209467951403
1993_RP_a404	0.000209467951403
1995_GJ_d166	0.000209467951403
1997_SZ10_1aae	0.000209467951403
1998_WW31_b868	0.000209467951403
1999	0.000209467951403
20000_Varuna_5e26	0.000209467951403
2001_QF298_30cb	0.000209467951403
2002_MS4_0604	0.000209467951403
2003_AZ84_e1dd	0.000209467951403
2003_MW12_8e4a	0.000209467951403
2003_QW90_2bd2	0.000209467951403
2004_XR190_b32f	0.000209467951403
2005_TN74_2b5f	0.000209467951403
2006_QH181_ff25	0.000209467951403
28978_Ixion_d0d8	0.000209467951403
38083_Rhadamanthus_c9bc	0.000209467951403
38628_Huya_fe89	0.000209467951403
50000_Quaoar_4fe2	0.000209467951403
53311_Deucalion_0709	0.000209467951403
58534_Logos_4c30	0.000209467951403
88611_Teharonhiawako_19b7	0.000209467951403
90377_Sedna_a0cf	0.000209467951403
90482_Orcus_ce26	0.000209467951403
Absolute_magnitude	0.000209467951403
Albedo	0.000209467951403
Apsis	0.000209467951403
Argument_of_periapsis	0.000209467951403
Asteroid	0.000209467951403
Asteroid_belt	0.000209467951403
Asteroid_family	0.000209467951403
Asteroid_group	0.000209467951403
Asteroid_moon	0.000209467951403
Astronomical_unit	0.000209467951403
Centaur_%28planetoid%29	0.000209467951403
Centaur_and_TNO_pronunciation_71f8	0.000209467951403
Chad_Trujillo_7d44	0.000209467951403
Charon_%28moon%29	0.000209467951403
Comet	0.000209467951403
Cubewano	0.000209467951403
Damocloid_asteroid	0.000209467951403
David_C._Jewitt_d049	0.000209467951403
Day	0.000209467951403
Dwarf_planet	0.000209467951403
Dysnomia_%28moon%29	0.000209467951403
Eris_%28dwarf_planet%29	0.000209467951403
Hydra_%28moon%29	0.000209467951403
Inclination	0.000209467951403
Jane_X._Luu_34a8	0.000209467951403
Kilometre	0.000209467951403
Kuiper_belt	0.000209467951403
List_of_asteroid_moons	0.000209467951403
List_of_minor_planets	0.000209467951403
Longitude_of_the_ascending_node	0.000209467951403
Mean_anomaly	0.000209467951403
Meanings_of_asteroid_names	0.000209467951403
Meteoroid	0.000209467951403
Minor_planet	0.000209467951403
Minor_planet_names	0.000209467951403
Natural_satellite	0.000209467951403
Near-Earth_asteroid_7398	0.000209467951403
Near-Earth_object_e8f8	0.000209467951403
Neptune	0.000209467951403
Neptune_Trojan_fbc0	0.000209467951403
Nix_%28moon%29	0.000209467951403
Oort_Cloud_11dc	0.000209467951403
Oort_cloud	0.000209467951403
Orbit	0.000209467951403
Orbital_eccentricity	0.000209467951403
Orbital_period	0.000209467951403
Orbital_resonance	0.000209467951403
Planet	0.000209467951403
Plutino	0.000209467951403
Pluto	0.000209467951403
Pronunciation_of_asteroid_names	0.000209467951403
Provisional_designation_in_astronomy	0.000209467951403
Resonant_trans-Neptunian_object_a05d	0.000209467951403
S_2000_%281998_WW31%29_1_4379	0.000209467951403
S_2005_%282003_EL61%29_1_0b53	0.000209467951403
S_2005_%282003_EL61%29_2_7cac	0.000209467951403
S_2005_%2879360%29_1_7b4e	0.000209467951403
Scattered_disc	0.000209467951403
Scattered_disc_object	0.000209467951403
Semi-major_axis	0.000209467951403
September_8	0.000209467951403
Small_Solar_System_body_1256	0.000209467951403
Solar_System_ac3e	0.000209467951403
Subscript	0.000209467951403
Superscript	0.000209467951403
Trans-Neptunian_object_824e	0.000209467951403
Trojan_asteroid	0.000209467951403
Twotino	0.000209467951403
Vulcanoid_asteroid	0.000209467951403
Year	0.000209467951403
(15810)_1994_JR1_9064	0.000209467951403
1994	0.000209467951403
2007	0.000209467951403
Aphelion	0.000209467951403
January_25	0.000209467951403
January_4	0.000209467951403
May_12	0.000209467951403
May_26	0.000209467951403
Minor_Planet_Center_f443	0.000209467951403
Perihelion	0.000209467951403
Resonance	0.000209467951403
